NORAD_CAT_ID,OBJECT_NAME,OBJECT_TYPE,EPOCH,MEAN_MOTION,ECCENTRICITY,INCLINATION,RA_OF_ASC_NODE,ARG_OF_PERICENTER,MEAN_ANOMALY,BSTAR,MEAN_MOTION_DOT,MEAN_MOTION_DDOT,TLE_LINE0,TLE_LINE1,TLE_LINE2,SEMIMAJOR_AXIS,PERIOD,APOGEE,PERIGEE,DECAYED
53848.0,STARLINK-4780,PAYLOAD,2023-10-30 00:39:32,15.08856679,0.000179,53.2167,202.0092,118.7834,241.3338,0.00026859,3.991e-05,0.0,0 STARLINK-4780,1 53848U 22114AG  23303.02745752  .00003991  00000-0  26859-3 0  9996,2 53848  53.2167 202.0092 0001790 118.7834 241.3338 15.08856679 62353,6917.829,95.436,540.933,538.456,0.0
53848.0,STARLINK-4780,PAYLOAD,2023-10-30 10:11:51,15.0884462,0.0001611,53.2165,200.2247,88.2768,271.8409,0.00014173,1.969e-05,0.0,0 STARLINK-4780,1 53848U 22114AG  23303.42490168  .00001969  00000-0  14173-3 0  9997,2 53848  53.2165 200.2247 0001611  88.2768 271.8409 15.08844620 62419,6917.866,95.437,540.846,538.617,0.0
53848.0,STARLINK-4780,PAYLOAD,2023-10-31 02:05:43,15.08839199,0.0001439,53.2159,197.2502,87.4904,272.6253,4.8891e-05,4.9e-06,0.0,0 STARLINK-4780,1 53848U 22114AG  23304.08730723  .00000490  00000-0  48891-4 0  9997,2 53848  53.2159 197.2502 0001439  87.4904 272.6253 15.08839199 62514,6917.883,95.438,540.743,538.752,0.0
53848.0,STARLINK-4780,PAYLOAD,2023-10-31 10:02:39,15.08836679,0.0001551,53.2156,195.7635,90.2797,269.8373,4.2208e-05,3.84e-06,0.0,0 STARLINK-4780,1 53848U 22114AG  23304.41850980  .00000384  00000-0  42208-4 0  9990,2 53848  53.2156 195.7635 0001551  90.2797 269.8373 15.08836679 63105,6917.891,95.438,540.829,538.683,0.0
53848.0,STARLINK-4780,PAYLOAD,2023-10-31 21:10:21,15.08844315,0.0001521,53.216,193.683,89.1338,270.9828,0.00029599,4.426e-05,0.0,0 STARLINK-4780,1 53848U 22114AG  23304.88218898  .00004426  00000-0  29599-3 0  9995,2 53848  53.2160 193.6830 0001521  89.1338 270.9828 15.08844315 63170,6917.867,95.437,540.784,538.68,0.0
53848.0,STARLINK-4780,PAYLOAD,2023-11-01 09:53:26,15.08848243,0.000143,53.2154,191.3012,100.7367,259.3786,0.00039478,6.002e-05,0.0,0 STARLINK-4780,1 53848U 22114AG  23305.41210802  .00006002  00000-0  39478-3 0  9991,2 53848  53.2154 191.3012 0001430 100.7367 259.3786 15.08848243 62718,6917.855,95.437,540.709,538.731,0.0
53848.0,STARLINK-4780,PAYLOAD,2023-11-01 22:36:31,15.08849054,0.0001513,53.2158,188.9211,106.5181,253.5977,0.00029009,4.333e-05,0.0,0 STARLINK-4780,1 53848U 22114AG  23305.94202639  .00004333  00000-0  29009-3 0  9992,2 53848  53.2158 188.9211 0001513 106.5181 253.5977 15.08849054 63333,6917.853,95.437,540.764,538.671,0.0
53848.0,STARLINK-4780,PAYLOAD,2023-11-02 09:44:13,15.08844632,0.0001313,53.2157,186.8414,99.9051,260.209,0.00016426,2.328e-05,0.0,0 STARLINK-4780,1 53848U 22114AG  23306.40570736  .00002328  00000-0  16426-3 0  9991,2 53848  53.2157 186.8414 0001313  99.9051 260.2090 15.08844632 62868,6917.866,95.437,540.64,538.823,0.0
53848.0,STARLINK-4780,PAYLOAD,2023-11-02 22:27:18,15.08843854,0.0001423,53.2152,184.4628,95.6997,264.4157,5.8588e-05,6.45e-06,0.0,0 STARLINK-4780,1 53848U 22114AG  23306.93562849  .00000645  00000-0  58588-4 0  9991,2 53848  53.2152 184.4628 0001423  95.6997 264.4157 15.08843854 63482,6917.869,95.437,540.718,538.749,0.0
53848.0,STARLINK-4780,PAYLOAD,2023-11-03 09:35:00,15.08844782,0.00015,53.2154,182.3801,99.9559,260.1602,0.00013305,1.83e-05,0.0,0 STARLINK-4780,1 53848U 22114AG  23307.39930794  .00001830  00000-0  13305-3 0  9994,2 53848  53.2154 182.3801 0001500  99.9559 260.1602 15.08844782 63019,6917.866,95.437,540.768,538.693,0.0
53848.0,STARLINK-4780,PAYLOAD,2023-11-03 22:18:05,15.08846456,0.0001552,53.2156,180.0004,102.6865,257.43,0.00015076,2.113e-05,0.0,0 STARLINK-4780,1 53848U 22114AG  23307.92922707  .00002113  00000-0  15076-3 0  9990,2 53848  53.2156 180.0004 0001552 102.6865 257.4300 15.08846456 63632,6917.861,95.437,540.799,538.652,0.0
53848.0,STARLINK-4780,PAYLOAD,2023-11-04 01:28:51,15.08847579,0.0001558,53.2157,179.4054,104.741,255.3754,0.00020205,2.93e-05,0.0,0 STARLINK-4780,1 53848U 22114AG  23308.06170639  .00002930  00000-0  20205-3 0  9992,2 53848  53.2157 179.4054 0001558 104.7410 255.3754 15.08847579 63654,6917.857,95.437,540.8,538.644,0.0
53848.0,STARLINK-4780,PAYLOAD,2023-11-04 20:33:29,15.08835972,0.00016,53.2165,175.836,108.3348,251.7818,2.2755e-05,7.4e-07,0.0,0 STARLINK-4780,1 53848U 22114AG  23308.85659208  .00000074  00000-0  22755-4 0  9993,2 53848  53.2165 175.8360 0001600 108.3348 251.7818 15.08835972 63230,6917.893,95.438,540.865,538.651,0.0
53848.0,STARLINK-4780,PAYLOAD,2023-11-04 22:08:52,15.08840472,0.0001265,53.2154,175.5404,86.2966,273.817,0.00012631,1.723e-05,0.0,0 STARLINK-4780,1 53848U 22114AG  23308.92283144  .00001723  00000-0  12631-3 0  9996,2 53848  53.2154 175.5404 0001265  86.2966 273.8170 15.08840472 63788,6917.879,95.438,540.619,538.869,0.0
53848.0,STARLINK-4780,PAYLOAD,2023-11-05 07:41:11,15.08848574,0.0001357,53.2163,173.7573,88.3035,271.8112,0.00020461,2.971e-05,0.0,0 STARLINK-4780,1 53848U 22114AG  23309.32026831  .00002971  00000-0  20461-3 0  9995,2 53848  53.2163 173.7573 0001357  88.3035 271.8112 15.08848574 63300,6917.854,95.437,540.658,538.78,0.0
53848.0,STARLINK-4780,PAYLOAD,2023-11-05 21:59:38,15.08880693,0.0001444,53.2159,171.0866,103.5228,256.5925,0.0012576,0.00019806,0.0,0 STARLINK-4780,1 53848U 22114AG  23309.91641888  .00019806  00000-0  12576-2 0  9997,2 53848  53.2159 171.0866 0001444 103.5228 256.5925 15.08880693 63931,6917.756,95.435,540.62,538.622,0.0
53848.0,STARLINK-4780,PAYLOAD,2023-11-06 07:31:56,15.08890481,8.46e-05,53.2162,169.2947,45.6735,314.4327,0.0011875,0.00018688,0.0,0 STARLINK-4780,1 53848U 22114AG  23310.31384827  .00018688  00000-0  11875-2 0  9998,2 53848  53.2162 169.2947 0000846  45.6735 314.4327 15.08890481 63990,6917.726,95.434,540.176,539.006,0.0
53848.0,STARLINK-4780,PAYLOAD,2023-11-06 18:39:39,15.08810322,0.0001277,53.2159,167.2155,81.3194,278.7942,-0.0017323,-0.00027729,0.0,0 STARLINK-4780,1 53848U 22114AG  23310.77754204 -.00027729  00000-0 -17323-2 0  9990,2 53848  53.2159 167.2155 0001277  81.3194 278.7942 15.08810322 63520,6917.971,95.439,540.72,538.953,0.0
53848.0,STARLINK-4780,PAYLOAD,2023-11-06 21:50:26,15.08802361,0.0001299,53.2161,166.6212,76.3671,283.7466,-0.001625,-0.0002603,0.0,0 STARLINK-4780,1 53848U 22114AG  23310.91002606 -.00026030  00000-0 -16250-2 0  9990,2 53848  53.2161 166.6212 0001299  76.3671 283.7466 15.08802361 64081,6917.995,95.44,540.759,538.962,0.0
53848.0,STARLINK-4780,PAYLOAD,2023-11-07 07:22:46,15.0879616,0.0001268,53.2158,164.8374,80.0582,280.0553,-0.00041057,-6.808e-05,0.0,0 STARLINK-4780,1 53848U 22114AG  23311.30747974 -.00006808  00000-0 -41057-3 0  9993,2 53848  53.2158 164.8374 0001268  80.0582 280.0553 15.08796160 63608,6918.014,95.44,540.757,539.002,0.0
53848.0,STARLINK-4780,PAYLOAD,2023-11-07 21:41:16,15.08801669,0.0001301,53.2152,162.1623,85.5409,274.5732,0.0011889,0.00018664,0.0,0 STARLINK-4780,1 53848U 22114AG  23311.90366248  .00018664  00000-0  11889-2 0  9990,2 53848  53.2152 162.1623 0001301  85.5409 274.5732 15.08801669 63693,6917.998,95.44,540.763,538.963,0.0
53848.0,STARLINK-4780,PAYLOAD,2023-11-08 19:56:40,15.08863173,0.0001146,53.2153,158.0005,64.7385,295.3726,0.0016438,0.00025987,0.0,0 STARLINK-4780,1 53848U 22114AG  23312.83102221  .00025987  00000-0  16438-2 0  9993,2 53848  53.2153 158.0005 0001146  64.7385 295.3726 15.08863173 63839,6917.81,95.436,540.467,538.882,0.0
53848.0,STARLINK-4780,PAYLOAD,2023-11-08 21:32:03,15.08862562,0.0001322,53.215,157.7018,78.7943,281.3197,0.0013816,0.00021782,0.0,0 STARLINK-4780,1 53848U 22114AG  23312.89726091  .00021782  00000-0  13816-2 0  9992,2 53848  53.2150 157.7018 0001322  78.7943 281.3197 15.08862562 64386,6917.811,95.436,540.591,538.762,0.0
53848.0,STARLINK-4780,PAYLOAD,2023-11-09 19:47:25,15.08878241,0.0001397,53.2151,153.5378,84.7736,275.3415,0.00081055,0.00012649,0.0,0 STARLINK-4780,1 53848U 22114AG  23313.82460384  .00012649  00000-0  81055-3 0  9999,2 53848  53.2151 153.5378 0001397  84.7736 275.3415 15.08878241 63981,6917.764,95.435,540.595,538.662,0.0
53848.0,STARLINK-4780,PAYLOAD,2023-11-10 06:55:07,15.08866367,0.0001396,53.215,151.457,80.49,279.625,0.00019877,2.879e-05,0.0,0 STARLINK-4780,1 53848U 22114AG  23314.28827775  .00002879  00000-0  19877-3 0  9998,2 53848  53.2150 151.4570 0001396  80.4900 279.6250 15.08866367 64055,6917.8,95.436,540.631,538.699,0.0
53848.0,STARLINK-4780,PAYLOAD,2023-11-10 19:38:12,15.08851774,0.0001315,53.2153,149.0766,88.9961,271.1182,6.5833e-05,7.6e-06,0.0,0 STARLINK-4780,1 53848U 22114AG  23314.81819567  .00000760  00000-0  65833-4 0  9998,2 53848  53.2153 149.0766 0001315  88.9961 271.1182 15.08851774 64135,6917.844,95.437,540.619,538.8,0.0
53848.0,STARLINK-4780,PAYLOAD,2023-11-11 13:07:26,15.08841658,0.000157,53.2159,145.804,100.0955,260.0215,-4.2843e-05,-9.7e-06,0.0,0 STARLINK-4780,1 53848U 22114AG  23315.54683797 -.00000970  00000-0 -42843-4 0  9994,2 53848  53.2159 145.8040 0001570 100.0955 260.0215 15.08841658 64787,6917.875,95.437,540.826,538.654,0.0
53848.0,STARLINK-4780,PAYLOAD,2023-11-11 19:28:59,15.08845624,0.000152,53.2161,144.6149,97.9121,262.2044,-0.00012008,-2.199e-05,0.0,0 STARLINK-4780,1 53848U 22114AG  23315.81179722 -.00002199  00000-0 -12008-3 0  9996,2 53848  53.2161 144.6149 0001520  97.9121 262.2044 15.08845624 64287,6917.863,95.437,540.78,538.677,0.0
53848.0,STARLINK-4780,PAYLOAD,2023-11-12 19:19:46,15.08846037,0.0001378,53.2166,140.1572,93.985,266.1299,0.0001195,1.615e-05,0.0,0 STARLINK-4780,1 53848U 22114AG  23316.80539380  .00001615  00000-0  11950-3 0  9991,2 53848  53.2166 140.1572 0001378  93.9850 266.1299 15.08846037 64979,6917.862,95.437,540.68,538.774,0.0
53848.0,STARLINK-4780,PAYLOAD,2023-11-13 19:10:33,15.08841751,0.0001368,53.2166,135.6955,87.6188,272.4961,0.00011519,1.546e-05,0.0,0 STARLINK-4780,1 53848U 22114AG  23317.79899628  .00001546  00000-0  11519-3 0  9998,2 53848  53.2166 135.6955 0001368  87.6188 272.4961 15.08841751 64587,6917.875,95.437,540.686,538.794,0.0
